NORAD_CAT_ID,OBJECT_NAME,OBJECT_TYPE,EPOCH,MEAN_MOTION,ECCENTRICITY,INCLINATION,RA_OF_ASC_NODE,ARG_OF_PERICENTER,MEAN_ANOMALY,BSTAR,MEAN_MOTION_DOT,MEAN_MOTION_DDOT,TLE_LINE0,TLE_LINE1,TLE_LINE2,SEMIMAJOR_AXIS,PERIOD,APOGEE,PERIGEE,DECAYED
53777.0,STARLINK-4664,PAYLOAD,2023-03-13 12:30:37,15.08867652,0.0001212,53.2158,137.2124,96.9343,263.1786,0.0022215,0.00035271,0.0,0 STARLINK-4664,1 53777U 22111E   23072.52126528  .00035271  00000-0  22215-2 0  9993,2 53777  53.2158 137.2124 0001212  96.9343 263.1786 15.08867652 28006,6917.796,95.436,540.499,538.822,0.0
53777.0,STARLINK-4664,PAYLOAD,2023-03-13 15:41:23,15.08877431,0.0001167,53.2159,136.6177,95.1928,264.9198,0.0024132,0.00038367,0.0,0 STARLINK-4664,1 53777U 22111E   23072.65374262  .00038367  00000-0  24132-2 0  9996,2 53777  53.2159 136.6177 0001167  95.1928 264.9198 15.08877431 28830,6917.766,95.435,540.438,538.824,0.0
53777.0,STARLINK-4664,PAYLOAD,2023-03-14 13:56:47,15.08858484,0.000188,53.2163,132.4549,39.0661,321.0467,0.0024352,0.00038701,0.0,0 STARLINK-4664,1 53777U 22111E   23073.58111085  .00038701  00000-0  24352-2 0  9997,2 53777  53.2163 132.4549 0001880  39.0661 321.0467 15.08858484 28162,6917.824,95.436,540.989,538.388,0.0
53777.0,STARLINK-4664,PAYLOAD,2023-03-14 15:32:10,15.08866152,0.0001362,53.2162,132.1574,61.8114,298.3016,0.0026361,0.00041946,0.0,0 STARLINK-4664,1 53777U 22111E   23073.64734807  .00041946  00000-0  26361-2 0  9994,2 53777  53.2162 132.1574 0001362  61.8114 298.3016 15.08866152 28984,6917.8,95.436,540.608,538.723,0.0
53777.0,STARLINK-4664,PAYLOAD,2023-03-15 04:15:15,15.08869273,5.99e-05,53.2165,129.7786,35.3397,324.7635,0.0021712,0.00034464,0.0,0 STARLINK-4664,1 53777U 22111E   23074.17726436  .00034464  00000-0  21712-2 0  9994,2 53777  53.2165 129.7786 0000599  35.3397 324.7635 15.08869273 28252,6917.791,95.436,540.07,539.242,0.0
53777.0,STARLINK-4664,PAYLOAD,2023-03-15 12:12:10,15.08899641,0.0001208,53.2165,128.2916,87.434,272.679,0.0028792,0.00045908,0.0,0 STARLINK-4664,1 53777U 22111E   23074.50845415  .00045908  00000-0  28792-2 0  9990,2 53777  53.2165 128.2916 0001208  87.4340 272.6790 15.08899641 29116,6917.698,95.434,540.399,538.727,0.0
53777.0,STARLINK-4664,PAYLOAD,2023-03-16 02:30:38,15.08851979,0.0001191,53.2175,125.6145,137.5524,222.556,0.0009022,0.00014104,0.0,0 STARLINK-4664,1 53777U 22111E   23075.10461548  .00014104  00000-0  90220-3 0  9998,2 53777  53.2175 125.6145 0001191 137.5524 222.5560 15.08851979 28394,6917.844,95.437,540.533,538.885,0.0
53777.0,STARLINK-4664,PAYLOAD,2023-03-16 12:02:57,15.08836347,8.66e-05,53.2171,123.831,118.232,241.8759,0.0001551,2.181e-05,0.0,0 STARLINK-4664,1 53777U 22111E   23075.50205998  .00002181  00000-0  15510-3 0  9998,2 53777  53.2171 123.8310 0000866 118.2320 241.8759 15.08836347 28455,6917.892,95.438,540.356,539.157,0.0
53777.0,STARLINK-4664,PAYLOAD,2023-03-16 19:59:54,15.08822865,7.61e-05,53.2168,122.3452,91.7153,268.3926,2.8749e-05,1.7e-06,0.0,0 STARLINK-4664,1 53777U 22111E   23075.83326663  .00000170  00000-0  28749-4 0  9992,2 53777  53.2168 122.3452 0000761  91.7153 268.3926 15.08822865 28501,6917.933,95.439,540.324,539.271,0.0
53777.0,STARLINK-4664,PAYLOAD,2023-03-17 10:18:23,15.08822392,0.0001154,53.2174,119.6697,85.7494,274.363,-0.00028527,-4.823e-05,0.0,0 STARLINK-4664,1 53777U 22111E   23076.42943947 -.00004823  00000-0 -28527-3 0  9992,2 53777  53.2174 119.6697 0001154  85.7494 274.3630 15.08822392 29400,6917.934,95.439,540.598,539.001,0.0
53777.0,STARLINK-4664,PAYLOAD,2023-03-17 19:50:41,15.08834649,0.000112,53.2173,117.8843,81.2481,278.8638,-0.00010299,-1.926e-05,0.0,0 STARLINK-4664,1 53777U 22111E   23076.82687482 -.00001926  00000-0 -10299-3 0  9993,2 53777  53.2173 117.8843 0001120  81.2481 278.8638 15.08834649 29463,6917.897,95.438,540.537,538.987,0.0
53777.0,STARLINK-4664,PAYLOAD,2023-03-18 10:09:10,15.08845674,0.0001035,53.217,115.2095,91.4265,268.6845,0.00041277,6.288e-05,0.0,0 STARLINK-4664,1 53777U 22111E   23077.42303551  .00006288  00000-0  41277-3 0  9996,2 53777  53.2170 115.2095 0001035  91.4265 268.6845 15.08845674 28746,6917.863,95.437,540.444,539.012,0.0
53777.0,STARLINK-4664,PAYLOAD,2023-03-19 02:03:01,15.08846612,8.07e-05,53.2163,112.235,81.4275,278.6809,0.00042952,6.556e-05,0.0,0 STARLINK-4664,1 53777U 22111E   23078.08543724  .00006556  00000-0  42952-3 0  9996,2 53777  53.2163 112.2350 0000807  81.4275 278.6809 15.08846612 28840,6917.86,95.437,540.283,539.167,0.0
53777.0,STARLINK-4664,PAYLOAD,2023-03-19 08:24:34,15.08853375,8.89e-05,53.216,111.045,79.1099,280.9994,0.00035387,5.351e-05,0.0,0 STARLINK-4664,1 53777U 22111E   23078.35039358  .00005351  00000-0  35387-3 0  9995,2 53777  53.2160 111.0450 0000889  79.1099 280.9994 15.08853375 29692,6917.84,95.437,540.32,539.09,0.0
53777.0,STARLINK-4664,PAYLOAD,2023-03-20 08:15:21,15.08845069,9.7e-05,53.2164,106.5846,74.8608,285.2492,3.1757e-05,2.18e-06,0.0,0 STARLINK-4664,1 53777U 22111E   23079.34399338  .00000218  00000-0  31757-4 0  9997,2 53777  53.2164 106.5846 0000970  74.8608 285.2492 15.08845069 29033,6917.865,95.437,540.401,539.059,0.0
53777.0,STARLINK-4664,PAYLOAD,2023-03-20 11:26:07,15.08851759,0.0001003,53.2176,105.9901,74.4368,285.6734,9.0743e-06,-1.43e-06,0.0,0 STARLINK-4664,1 53777U 22111E   23079.47647094 -.00000143  00000-0  90743-5 0  9995,2 53777  53.2176 105.9901 0001003  74.4368 285.6734 15.08851759 29865,6917.844,95.437,540.403,539.016,0.0
53777.0,STARLINK-4664,PAYLOAD,2023-03-21 08:06:07,15.08846151,0.0001296,53.2181,102.1252,77.8961,282.2176,5.5585e-05,5.97e-06,0.0,0 STARLINK-4664,1 53777U 22111E   23080.33758984  .00000597  00000-0  55585-4 0  9999,2 53777  53.2181 102.1252 0001296  77.8961 282.2176 15.08846151 29996,6917.862,95.437,540.623,538.83,0.0
53777.0,STARLINK-4664,PAYLOAD,2023-03-22 04:46:09,15.08834956,0.0001239,53.2192,98.2606,85.0742,275.0392,5.3185e-05,5.59e-06,0.0,0 STARLINK-4664,1 53777U 22111E   23081.19871670  .00000559  00000-0  53185-4 0  9994,2 53777  53.2192  98.2606 0001239  85.0742 275.0392 15.08834956 29317,6917.896,95.438,540.618,538.904,0.0
53777.0,STARLINK-4664,PAYLOAD,2023-03-22 11:07:41,15.08842767,0.0001166,53.2183,97.0689,88.1111,272.0015,7.1447e-05,8.5e-06,0.0,0 STARLINK-4664,1 53777U 22111E   23081.46367094  .00000850  00000-0  71447-4 0  9999,2 53777  53.2183  97.0689 0001166  88.1111 272.0015 15.08842767 29350,6917.872,95.437,540.544,538.93,0.0
53777.0,STARLINK-4664,PAYLOAD,2023-03-23 07:47:41,15.08846112,0.0001171,53.2179,93.2034,103.5544,256.5579,8.0428e-05,9.93e-06,0.0,0 STARLINK-4664,1 53777U 22111E   23082.32478899  .00000993  00000-0  80428-4 0  9998,2 53777  53.2179  93.2034 0001171 103.5544 256.5579 15.08846112 30290,6917.862,95.437,540.537,538.917,0.0
53777.0,STARLINK-4664,PAYLOAD,2023-03-23 17:20:00,15.08844055,0.0001067,53.2175,91.4195,98.7151,261.3962,2.8394e-05,1.64e-06,0.0,0 STARLINK-4664,1 53777U 22111E   23082.72223080  .00000164  00000-0  28394-4 0  9996,2 53777  53.2175  91.4195 0001067  98.7151 261.3962 15.08844055 29547,6917.868,95.437,540.471,538.995,0.0
53777.0,STARLINK-4664,PAYLOAD,2023-03-24 09:13:51,15.0885989,0.0001102,53.2182,88.4449,114.1413,245.9694,0.00023432,3.445e-05,0.0,0 STARLINK-4664,1 53777U 22111E   23083.38461884  .00003445  00000-0  23432-3 0  9997,2 53777  53.2182  88.4449 0001102 114.1413 245.9694 15.08859890 29641,6917.82,95.436,540.447,538.922,0.0
53777.0,STARLINK-4664,PAYLOAD,2023-03-24 17:10:47,15.08842786,0.0001187,53.2155,86.9601,93.809,266.3038,1.6239e-05,-2.9e-07,0.0,0 STARLINK-4664,1 53777U 22111E   23083.71583113 -.00000029  00000-0  16239-4 0  9998,2 53777  53.2155  86.9601 0001187  93.8090 266.3038 15.08842786 29691,6917.872,95.437,540.558,538.916,0.0
53777.0,STARLINK-4664,PAYLOAD,2023-03-25 04:18:30,15.08835686,0.0001421,53.2166,84.8802,101.5903,258.5249,-3.4797e-05,-8.42e-06,0.0,0 STARLINK-4664,1 53777U 22111E   23084.17951667 -.00000842  00000-0 -34797-4 0  9995,2 53777  53.2166  84.8802 0001421 101.5903 258.5249 15.08835686 29760,6917.894,95.438,540.742,538.776,0.0
53777.0,STARLINK-4664,PAYLOAD,2023-03-25 17:01:35,15.0883044,3.97e-05,53.2196,82.5007,106.3366,253.7669,-2.7738e-05,-7.29e-06,0.0,0 STARLINK-4664,1 53777U 22111E   23084.70944200 -.00000729  00000-0 -27738-4 0  9990,2 53777  53.2196  82.5007 0000397 106.3366 253.7669 15.08830440 29847,6917.91,95.438,540.049,539.5,0.0
53777.0,STARLINK-4664,PAYLOAD,2023-03-26 07:20:03,15.08845242,0.0001235,53.2188,79.8205,100.2076,259.9055,-1.0023e-05,-4.47e-06,0.0,0 STARLINK-4664,1 53777U 22111E   23085.30559812 -.00000447  00000-0 -10023-4 0  9994,2 53777  53.2188  79.8205 0001235 100.2076 259.9055 15.08845242 29933,6917.864,95.437,540.584,538.875,0.0
53777.0,STARLINK-4664,PAYLOAD,2023-03-26 23:13:55,15.0883899,0.0001404,53.2181,76.8496,83.9907,276.1245,0.00014739,2.058e-05,0.0,0 STARLINK-4664,1 53777U 22111E   23085.96799991  .00002058  00000-0  14739-3 0  9995,2 53777  53.2181  76.8496 0001404  83.9907 276.1245 15.08838990 30849,6917.883,95.438,540.72,538.777,0.0
53777.0,STARLINK-4664,PAYLOAD,2023-03-27 10:21:36,15.08853156,0.0001499,53.2186,74.7656,92.3546,267.7618,0.00017591,2.514e-05,0.0,0 STARLINK-4664,1 53777U 22111E   23086.43167020  .00002514  00000-0  17591-3 0  9996,2 53777  53.2186  74.7656 0001499  92.3546 267.7618 15.08853156 30106,6917.84,95.437,540.742,538.668,0.0
53777.0,STARLINK-4664,PAYLOAD,2023-03-27 16:43:10,15.08836128,0.00018,53.2191,73.5782,70.8498,289.2689,-1.2836e-05,-4.92e-06,0.0,0 STARLINK-4664,1 53777U 22111E   23086.69664690 -.00000492  00000-0 -12836-4 0  9992,2 53777  53.2191  73.5782 0001800  70.8498 289.2689 15.08836128 30143,6917.892,95.438,541.002,538.512,0.0
53777.0,STARLINK-4664,PAYLOAD,2023-03-28 10:12:23,15.08852503,0.0001319,53.2189,70.3059,89.3322,270.7821,0.00024448,3.606e-05,0.0,0 STARLINK-4664,1 53777U 22111E   23087.42527505  .00003606  00000-0  24448-3 0  9996,2 53777  53.2189  70.3059 0001319  89.3322 270.7821 15.08852503 30258,6917.842,95.437,540.62,538.795,0.0
